start=new Date('2022-06-07T00:00:00.000Z').valueOf();
sats=[{"COUNTRY_CODE":"US","REF_FRAME":"TEME","GP_ID":"205523551","EPHEMERIS_TYPE":"0","MEAN_ANOMALY":"298.8413","OBJECT_NAME":"STARLINK-1409","BSTAR":"-0.00000082627000","CLASSIFICATION_TYPE":"U","TLE_LINE2":"2 45704  53.0551 104.8783 0001912  61.2768 298.8413 15.06401901111976","MEAN_MOTION_DDOT":"0.0000000000000","PERIOD":"95.592","APOAPSIS":"548.532","TLE_LINE1":"1 45704U 20035AZ  22157.88954248 -.00000294  00000-0 -82627-6 0  9993","MEAN_MOTION":"15.06401901","INCLINATION":"53.0551","FILE":"3484350","RCS_SIZE":"LARGE","TIME_SYSTEM":"UTC","LAUNCH_DATE":"2020-06-04","CENTER_NAME":"EARTH","SEMIMAJOR_AXIS":"6925.343","PERIAPSIS":"545.884","MEAN_MOTION_DOT":"-0.00000294","NORAD_CAT_ID":"45704","OBJECT_ID":"2020-035AZ","EPOCH":"2022-06-06T21:20:56.470272","SITE":"AFETR","MEAN_ELEMENT_THEORY":"SGP4","OBJECT_TYPE":"PAYLOAD","RA_OF_ASC_NODE":"104.8783","ECCENTRICITY":"0.00019120","REV_AT_EPOCH":"11197","ELEMENT_SET_NO":"999","ARG_OF_PERICENTER":"61.2768","DECAY_DATE":null},{"TIME_SYSTEM":"UTC","FILE":"3484350","RCS_SIZE":"LARGE","MEAN_MOTION":"15.06387986","TLE_LINE1":"1 45705U 20035BA  22157.58457258 -.00000347  00000-0 -44011-5 0  9993","INCLINATION":"53.0540","APOAPSIS":"548.685","PERIOD":"95.593","MEAN_MOTION_DDOT":"0.0000000000000","TLE_LINE2":"2 45705  53.0540 106.2316 0002071  59.2137 300.9055 15.06387986111914","CLASSIFICATION_TYPE":"U","BSTAR":"-0.00000440110000","OBJECT_NAME":"STARLINK-1410","EPHEMERIS_TYPE":"0","MEAN_ANOMALY":"300.9055","GP_ID":"205523797","REF_FRAME":"TEME","COUNTRY_CODE":"US","DECAY_DATE":null,"ARG_OF_PERICENTER":"59.2137","ELEMENT_SET_NO":"999","REV_AT_EPOCH":"11191","ECCENTRICITY":"0.00020710","RA_OF_ASC_NODE":"106.2316","OBJECT_TYPE":"PAYLOAD","MEAN_ELEMENT_THEORY":"SGP4","SITE":"AFETR","EPOCH":"2022-06-06T14:01:47.070912","OBJECT_ID":"2020-035BA","NORAD_CAT_ID":"45705","PERIAPSIS":"545.816","MEAN_MOTION_DOT":"-0.00000347","SEMIMAJOR_AXIS":"6925.385","CENTER_NAME":"EARTH","LAUNCH_DATE":"2020-06-04"},{"ELEMENT_SET_NO":"999","REV_AT_EPOCH":"11238","DECAY_DATE":null,"ARG_OF_PERICENTER":"58.5843","OBJECT_TYPE":"PAYLOAD","ECCENTRICITY":"0.00017940","RA_OF_ASC_NODE":"74.7774","SITE":"AFETR","MEAN_ELEMENT_THEORY":"SGP4","SEMIMAJOR_AXIS":"6925.333","CENTER_NAME":"EARTH","LAUNCH_DATE":"2020-06-04","EPOCH":"2022-06-06T21:47:30.168384","OBJECT_ID":"2020-035BB","NORAD_CAT_ID":"45706","MEAN_MOTION_DOT":"0.00000291","PERIAPSIS":"545.956","TIME_SYSTEM":"UTC","RCS_SIZE":"LARGE","FILE":"3484350","MEAN_MOTION":"15.06404949","TLE_LINE1":"1 45706U 20035BB  22157.90798806  .00000291  00000-0  38451-4 0  9993","INCLINATION":"53.0554","APOAPSIS":"548.441","TLE_LINE2":"2 45706  53.0554  74.7774 0001794  58.5843 301.5321 15.06404949112388","PERIOD":"95.592","MEAN_MOTION_DDOT":"0.0000000000000","OBJECT_NAME":"STARLINK-1411","BSTAR":"0.00003845100000","CLASSIFICATION_TYPE":"U","COUNTRY_CODE":"US","REF_FRAME":"TEME","EPHEMERIS_TYPE":"0","MEAN_ANOMALY":"301.5321","GP_ID":"205524547"},{"MEAN_MOTION":"15.06401452","TLE_LINE1":"1 45707U 20035BC  22157.77161421 -.00000518  00000-0 -15856-4 0  9994","INCLINATION":"53.0566","APOAPSIS":"548.483","TIME_SYSTEM":"UTC","RCS_SIZE":"LARGE","FILE":"3484350","TLE_LINE2":"2 45707  53.0566  75.4005 0001840  67.6795 292.4389 15.06401452112373","MEAN_MOTION_DDOT":"0.0000000000000","PERIOD":"95.592","OBJECT_NAME":"STARLINK-1412","BSTAR":"-0.00001585600000","CLASSIFICATION_TYPE":"U","COUNTRY_CODE":"US","REF_FRAME":"TEME","GP_ID":"205524771","EPHEMERIS_TYPE":"0","MEAN_ANOMALY":"292.4389","ELEMENT_SET_NO":"999","REV_AT_EPOCH":"11237","ARG_OF_PERICENTER":"67.6795","DECAY_DATE":null,"OBJECT_TYPE":"PAYLOAD","ECCENTRICITY":"0.00018400","RA_OF_ASC_NODE":"75.4005","SITE":"AFETR","MEAN_ELEMENT_THEORY":"SGP4","LAUNCH_DATE":"2020-06-04","CENTER_NAME":"EARTH","SEMIMAJOR_AXIS":"6925.344","NORAD_CAT_ID":"45707","PERIAPSIS":"545.935","MEAN_MOTION_DOT":"-0.00000518","EPOCH":"2022-06-06T18:31:07.467744","OBJECT_ID":"2020-035BC"},{"OBJECT_NAME":"STARLINK-1418","BSTAR":"0.00003972200000","CLASSIFICATION_TYPE":"U","COUNTRY_CODE":"US","REF_FRAME":"TEME","MEAN_ANOMALY":"296.2856","EPHEMERIS_TYPE":"0","GP_ID":"205493726","TIME_SYSTEM":"UTC","FILE":"3484104","RCS_SIZE":"LARGE","TLE_LINE1":"1 45708U 20035BD  22157.48042375  .00000310  00000-0  39722-4 0  9995","MEAN_MOTION":"15.06406247","INCLINATION":"53.0551","APOAPSIS":"548.426","TLE_LINE2":"2 45708  53.0551  76.6936 0001778  63.8316 296.2856 15.06406247112335","PERIOD":"95.592","MEAN_MOTION_DDOT":"0.0000000000000","SITE":"AFETR","MEAN_ELEMENT_THEORY":"SGP4","SEMIMAJOR_AXIS":"6925.329","CENTER_NAME":"EARTH","LAUNCH_DATE":"2020-06-04","EPOCH":"2022-06-06T11:31:48.612000","OBJECT_ID":"2020-035BD","NORAD_CAT_ID":"45708","PERIAPSIS":"545.963","MEAN_MOTION_DOT":"0.00000310","ELEMENT_SET_NO":"999","REV_AT_EPOCH":"11233","DECAY_DATE":null,"ARG_OF_PERICENTER":"63.8316","OBJECT_TYPE":"PAYLOAD","ECCENTRICITY":"0.00017780","RA_OF_ASC_NODE":"76.6936"},{"ARG_OF_PERICENTER":"63.2952","DECAY_DATE":null,"ELEMENT_SET_NO":"999","REV_AT_EPOCH":"11197","ECCENTRICITY":"0.00018420","RA_OF_ASC_NODE":"75.0638","OBJECT_TYPE":"PAYLOAD","MEAN_ELEMENT_THEORY":"SGP4","SITE":"AFETR","NORAD_CAT_ID":"45709","MEAN_MOTION_DOT":"0.00000656","PERIAPSIS":"545.920","EPOCH":"2022-06-06T20:22:35.134464","OBJECT_ID":"2020-035BE","LAUNCH_DATE":"2020-06-04","CENTER_NAME":"EARTH","SEMIMAJOR_AXIS":"6925.331","TLE_LINE1":"1 45709U 20035BE  22157.84901776  .00000656  00000-0  62921-4 0  9995","MEAN_MOTION":"15.06405873","INCLINATION":"53.0571","APOAPSIS":"548.471","TIME_SYSTEM":"UTC","FILE":"3484233","RCS_SIZE":"LARGE","MEAN_MOTION_DDOT":"0.0000000000000","PERIOD":"95.592","TLE_LINE2":"2 45709  53.0571  75.0638 0001842  63.2952 296.8225 15.06405873111971","CLASSIFICATION_TYPE":"U","BSTAR":"0.00006292100000","OBJECT_NAME":"STARLINK-1421","GP_ID":"205501779","MEAN_ANOMALY":"296.8225","EPHEMERIS_TYPE":"0","COUNTRY_CODE":"US","REF_FRAME":"TEME"},{"ELEMENT_SET_NO":"999","REV_AT_EPOCH":"11238","DECAY_DATE":null,"ARG_OF_PERICENTER":"60.1584","OBJECT_TYPE":"PAYLOAD","ECCENTRICITY":"0.00021390","RA_OF_ASC_NODE":"75.0715","SITE":"AFETR","MEAN_ELEMENT_THEORY":"SGP4","CENTER_NAME":"EARTH","SEMIMAJOR_AXIS":"6925.328","LAUNCH_DATE":"2020-06-04","EPOCH":"2022-06-06T20:17:16.562112","OBJECT_ID":"2020-035BF","NORAD_CAT_ID":"45710","PERIAPSIS":"545.712","MEAN_MOTION_DOT":"0.00000374","TIME_SYSTEM":"UTC","RCS_SIZE":"LARGE","FILE":"3484350","TLE_LINE1":"1 45710U 20035BF  22157.84533058  .00000374  00000-0  43994-4 0  9997","MEAN_MOTION":"15.06406750","INCLINATION":"53.0571","APOAPSIS":"548.674","TLE_LINE2":"2 45710  53.0571  75.0715 0002139  60.1584 299.9617 15.06406750112386","PERIOD":"95.592","MEAN_MOTION_DDOT":"0.0000000000000","OBJECT_NAME":"STARLINK-1423","CLASSIFICATION_TYPE":"U","BSTAR":"0.00004399400000","COUNTRY_CODE":"US","REF_FRAME":"TEME","EPHEMERIS_TYPE":"0","MEAN_ANOMALY":"299.9617","GP_ID":"205524047"},{"BSTAR":"0.00008244000000","CLASSIFICATION_TYPE":"U","OBJECT_NAME":"STARLINK-1433","MEAN_ANOMALY":"297.9139","EPHEMERIS_TYPE":"0","GP_ID":"205501289","COUNTRY_CODE":"US","REF_FRAME":"TEME","RCS_SIZE":"LARGE","FILE":"3484233","TIME_SYSTEM":"UTC","APOAPSIS":"548.644","MEAN_MOTION":"15.06404021","TLE_LINE1":"1 45711U 20035BG  22157.49516988  .00000947  00000-0  82440-4 0  9997","INCLINATION":"53.0556","PERIOD":"95.592","MEAN_MOTION_DDOT":"0.0000000000000","TLE_LINE2":"2 45711  53.0556  76.6373 0002084  62.2061 297.9139 15.06404021111924","MEAN_ELEMENT_THEORY":"SGP4","SITE":"AFETR","OBJECT_ID":"2020-035BG","EPOCH":"2022-06-06T11:53:02.677632","MEAN_MOTION_DOT":"0.00000947","PERIAPSIS":"545.758","NORAD_CAT_ID":"45711","SEMIMAJOR_AXIS":"6925.336","CENTER_NAME":"EARTH","LAUNCH_DATE":"2020-06-04","DECAY_DATE":null,"ARG_OF_PERICENTER":"62.2061","REV_AT_EPOCH":"11192","ELEMENT_SET_NO":"999","RA_OF_ASC_NODE":"76.6373","ECCENTRICITY":"0.00020840","OBJECT_TYPE":"PAYLOAD"},{"MEAN_MOTION_DDOT":"0.0000000000000","PERIOD":"95.592","TLE_LINE2":"2 45712  53.0565  75.4748 0001715  63.5491 296.5674 15.06405952112372","MEAN_MOTION":"15.06405952","TLE_LINE1":"1 45712U 20035BH  22157.75687176 -.00000420  00000-0 -93180-5 0  9997","INCLINATION":"53.0565","APOAPSIS":"548.383","TIME_SYSTEM":"UTC","RCS_SIZE":"LARGE","FILE":"3484350","GP_ID":"205523552","MEAN_ANOMALY":"296.5674","EPHEMERIS_TYPE":"0","COUNTRY_CODE":"US","REF_FRAME":"TEME","CLASSIFICATION_TYPE":"U","BSTAR":"-0.00000931800000","OBJECT_NAME":"STARLINK-1434","ECCENTRICITY":"0.00017150","RA_OF_ASC_NODE":"75.4748","OBJECT_TYPE":"PAYLOAD","ARG_OF_PERICENTER":"63.5491","DECAY_DATE":null,"ELEMENT_SET_NO":"999","REV_AT_EPOCH":"11237","NORAD_CAT_ID":"45712","PERIAPSIS":"546.008","MEAN_MOTION_DOT":"-0.00000420","EPOCH":"2022-06-06T18:09:53.720064","OBJECT_ID":"2020-035BH","LAUNCH_DATE":"2020-06-04","SEMIMAJOR_AXIS":"6925.330","CENTER_NAME":"EARTH","MEAN_ELEMENT_THEORY":"SGP4","SITE":"AFETR"},{"OBJECT_NAME":"STARLINK-1436","BSTAR":"0.00003512200000","CLASSIFICATION_TYPE":"U","COUNTRY_CODE":"US","REF_FRAME":"TEME","EPHEMERIS_TYPE":"0","MEAN_ANOMALY":"296.5483","GP_ID":"205523798","RCS_SIZE":"LARGE","FILE":"3484350","TIME_SYSTEM":"UTC","APOAPSIS":"548.791","TLE_LINE1":"1 45713U 20035BJ  22157.84349364  .00000241  00000-0  35122-4 0  9992","MEAN_MOTION":"15.06400528","INCLINATION":"53.0555","TLE_LINE2":"2 45713  53.0555  95.0657 0002280  63.5740 296.5483 15.06400528112095","PERIOD":"95.592","MEAN_MOTION_DDOT":"0.0000000000000","SITE":"AFETR","MEAN_ELEMENT_THEORY":"SGP4","CENTER_NAME":"EARTH","SEMIMAJOR_AXIS":"6925.347","LAUNCH_DATE":"2020-06-04","OBJECT_ID":"2020-035BJ","EPOCH":"2022-06-06T20:14:37.850496","MEAN_MOTION_DOT":"0.00000241","PERIAPSIS":"545.633","NORAD_CAT_ID":"45713","REV_AT_EPOCH":"11209","ELEMENT_SET_NO":"999","DECAY_DATE":null,"ARG_OF_PERICENTER":"63.5740","OBJECT_TYPE":"PAYLOAD","RA_OF_ASC_NODE":"95.0657","ECCENTRICITY":"0.00022800"}];
